{"type": "FeatureCollection", "features": [ {"type": "Feature", "properties": {"norad_id": 39778, "name": "IRIDIUM 33 DEB", "group": "iridium-33-debris", "lat": -6.3495054568362645, "lon": 47.197010565569826, "alt_km": 714.5686354406198, "timestamp": "2025-12-02T15:49:07.579332+00:00", "meta": {"OBJECT_NAME": "IRIDIUM 33 DEB", "OBJECT_ID": "1997-051AAK", "EPOCH": "2025-12-02T04:17:14.096832", "MEAN_MOTION": 14.54133244, "ECCENTRICITY": 0.00088359, "INCLINATION": 86.3787, "RA_OF_ASC_NODE": 47.8092, "ARG_OF_PERICENTER": 71.8922, "MEAN_ANOMALY": 288.3247, "EPHEMERIS_TYPE": 0, "CLASSIFICATION_TYPE": "U", "NORAD_CAT_ID": 39778, "ELEMENT_SET_NO": 999, "REV_AT_EPOCH": 60539, "BSTAR": 0.0010816599, "MEAN_MOTION_DOT": 4.593e-05, "MEAN_MOTION_DDOT": 0}, "tle": {"line1": "1 39778U 97051AAK 25336.17863538  .00004593  00000+0  10817-2 0  9995", "line2": "2 39778  86.3787  47.8092 0008835  71.8922 288.3247 14.54133244605396"}}, "geometry": {"type": "Point", "coordinates": [47.197010565569826, -6.3495054568362645]}}, {"type": "Feature", "properties": {"norad_id": 39781, "name": "IRIDIUM 33 DEB", "group": "iridium-33-debris", "lat": -72.66687383660796, "lon": 93.8688390771432, "alt_km": 750.1302683816739, "timestamp": "2025-12-02T15:49:07.579342+00:00", "meta": {"OBJECT_NAME": "IRIDIUM 33 DEB", "OBJECT_ID": "1997-051AAN", "EPOCH": "2025-12-01T14:05:13.737984", "MEAN_MOTION": 14.20093316, "ECCENTRICITY": 0.01818611, "INCLINATION": 86.3695, "RA_OF_ASC_NODE": 262.5729, "ARG_OF_PERICENTER": 308.3699, "MEAN_ANOMALY": 228.4219, "EPHEMERIS_TYPE": 0, "CLASSIFICATION_TYPE": "U", "NORAD_CAT_ID": 39781, "ELEMENT_SET_NO": 999, "REV_AT_EPOCH": 7948, "BSTAR": 0.0058998753, "MEAN_MOTION_DOT": 0.00014872, "MEAN_MOTION_DDOT": 0}, "tle": {"line1": "1 39781U 97051AAN 25335.58696456  .00014872  00000+0  58999-2 0  9990", "line2": "2 39781  86.3695 262.5729 0181861 308.3699 228.4219 14.20093316 79488"}}, "geometry": {"type": "Point", "coordinates": [93.8688390771432, -72.66687383660796]}}, {"type": "Feature", "properties": {"norad_id": 39783, "name": "IRIDIUM 33 DEB", "group": "iridium-33-debris", "lat": 0.919304842099499, "lon": 80.46473495514032, "alt_km": 484.2727069358243, "timestamp": "2025-12-02T15:49:07.579353+00:00", "meta": {"OBJECT_NAME": "IRIDIUM 33 DEB", "OBJECT_ID": "1997-051AAQ", "EPOCH": "2025-11-16T15:05:40.850592", "MEAN_MOTION": 15.19327111, "ECCENTRICITY": 0.00057535, "INCLINATION": 86.1306, "RA_OF_ASC_NODE": 268.8004, "ARG_OF_PERICENTER": 179.9151, "MEAN_ANOMALY": 1.8316, "EPHEMERIS_TYPE": 0, "CLASSIFICATION_TYPE": "U", "NORAD_CAT_ID": 39783, "ELEMENT_SET_NO": 999, "REV_AT_EPOCH": 60401, "BSTAR": 0.010398125, "MEAN_MOTION_DOT": 0.00226179, "MEAN_MOTION_DDOT": 0}, "tle": {"line1": "1 39783U 97051AAQ 25320.62894503  .00226179  00000+0  10398-1 0  9999", "line2": "2 39783  86.1306 268.8004 0005753 179.9151   1.8316 15.19327111604018"}}, "geometry": {"type": "Point", "coordinates": [80.46473495514032, 0.919304842099499]}}, {"type": "Feature", "properties": {"norad_id": 40996, "name": "IRIDIUM 33 DEB", "group": "iridium-33-debris", "lat": -32.59040242790226, "lon": -171.54615776985545, "alt_km": 592.2628609261201, "timestamp": "2025-12-02T15:49:07.579363+00:00", "meta": {"OBJECT_NAME": "IRIDIUM 33 DEB", "OBJECT_ID": "1997-051ABJ", "EPOCH": "2025-11-30T01:58:04.991808", "MEAN_MOTION": 14.95095343, "ECCENTRICITY": 0.00120283, "INCLINATION": 86.3535, "RA_OF_ASC_NODE": 7.3184, "ARG_OF_PERICENTER": 99.499, "MEAN_ANOMALY": 290.4978, "EPHEMERIS_TYPE": 0, "CLASSIFICATION_TYPE": "U", "NORAD_CAT_ID": 40996, "ELEMENT_SET_NO": 999, "REV_AT_EPOCH": 62299, "BSTAR": 0.0030307541, "MEAN_MOTION_DOT": 0.00033396, "MEAN_MOTION_DDOT": 0}, "tle": {"line1": "1 40996U 97051ABJ 25334.08200222  .00033396  00000+0  30308-2 0  9992", "line2": "2 40996  86.3535   7.3184 0012028  99.4990 290.4978 14.95095343622996"}}, "geometry": {"type": "Point", "coordinates": [-171.54615776985545, -32.59040242790226]}}, {"type": "Feature", "properties": {"norad_id": 40998, "name": "IRIDIUM 33 DEB", "group": "iridium-33-debris", "lat": -15.645171133938659, "lon": 56.946239326058084, "alt_km": 750.7461039928394, "timestamp": "2025-12-02T15:49:07.579374+00:00", "meta": {"OBJECT_NAME": "IRIDIUM 33 DEB", "OBJECT_ID": "1997-051ABL", "EPOCH": "2025-12-01T23:50:33.780192", "MEAN_MOTION": 14.45034704, "ECCENTRICITY": 0.00095443, "INCLINATION": 86.3835, "RA_OF_ASC_NODE": 58.2453, "ARG_OF_PERICENTER": 112.5811, "MEAN_ANOMALY": 11.2628, "EPHEMERIS_TYPE": 0, "CLASSIFICATION_TYPE": "U", "NORAD_CAT_ID": 40998, "ELEMENT_SET_NO": 999, "REV_AT_EPOCH": 6526, "BSTAR": 0.00063238102, "MEAN_MOTION_DOT": 2.227e-05, "MEAN_MOTION_DDOT": 0}, "tle": {"line1": "1 40998U 97051ABL 25335.99344653  .00002227  00000+0  63238-3 0  9990", "line2": "2 40998  86.3835  58.2453 0009544 112.5811  11.2628 14.45034704 65264"}}, "geometry": {"type": "Point", "coordinates": [56.946239326058084, -15.645171133938659]}}, {"type": "Feature", "properties": {"norad_id": 46435, "name": "IRIDIUM 33 DEB", "group": "iridium-33-debris", "lat": -28.311570818201616, "lon": -163.72557356574077, "alt_km": 651.9606623233194, "timestamp": "2025-12-02T15:49:07.579384+00:00", "meta": {"OBJECT_NAME": "IRIDIUM 33 DEB", "OBJECT_ID": "1997-051ABN", "EPOCH": "2025-12-01T21:34:01.840224", "MEAN_MOTION": 14.31281633, "ECCENTRICITY": 0.02132677, "INCLINATION": 86.2832, "RA_OF_ASC_NODE": 198.6078, "ARG_OF_PERICENTER": 311.3277, "MEAN_ANOMALY": 63.4086, "EPHEMERIS_TYPE": 0, "CLASSIFICATION_TYPE": "U", "NORAD_CAT_ID": 46435, "ELEMENT_SET_NO": 999, "REV_AT_EPOCH": 7761, "BSTAR": 0.0078564893, "MEAN_MOTION_DOT": 0.00026766, "MEAN_MOTION_DDOT": 0}, "tle": {"line1": "1 46435U 97051ABN 25335.89863241  .00026766  00000+0  78565-2 0  9992", "line2": "2 46435  86.2832 198.6078 0213267 311.3277  63.4086 14.31281633 77617"}}, "geometry": {"type": "Point", "coordinates": [-163.72557356574077, -28.311570818201616]}}, {"type": "Feature", "properties": {"norad_id": 46734, "name": "IRIDIUM 33 DEB", "group": "iridium-33-debris", "lat": 19.10858657404939, "lon": -174.0073661713525, "alt_km": 777.7325462485078, "timestamp": "2025-12-02T15:49:07.579395+00:00", "meta": {"OBJECT_NAME": "IRIDIUM 33 DEB", "OBJECT_ID": "1997-051ABR", "EPOCH": "2025-12-01T09:21:29.278944", "MEAN_MOTION": 14.41774419, "ECCENTRICITY": 0.00397336, "INCLINATION": 86.2649, "RA_OF_ASC_NODE": 7.8461, "ARG_OF_PERICENTER": 13.5805, "MEAN_ANOMALY": 43.5005, "EPHEMERIS_TYPE": 0, "CLASSIFICATION_TYPE": "U", "NORAD_CAT_ID": 46734, "ELEMENT_SET_NO": 999, "REV_AT_EPOCH": 62847, "BSTAR": 0.0010971823, "MEAN_MOTION_DOT": 3.634e-05, "MEAN_MOTION_DDOT": 0}, "tle": {"line1": "1 46734U 97051ABR 25335.38992221  .00003634  00000+0  10972-2 0  9996", "line2": "2 46734  86.2649   7.8461 0039733  13.5805  43.5005 14.41774419628470"}}, "geometry": {"type": "Point", "coordinates": [-174.0073661713525, 19.10858657404939]}}, {"type": "Feature", "properties": {"norad_id": 46965, "name": "IRIDIUM 33 DEB", "group": "iridium-33-debris", "lat": -8.834955470243072, "lon": -15.401247680667824, "alt_km": 683.4973173402514, "timestamp": "2025-12-02T15:49:07.579405+00:00", "meta": {"OBJECT_NAME": "IRIDIUM 33 DEB", "OBJECT_ID": "1997-051ABX", "EPOCH": "2025-12-01T19:17:57.587136", "MEAN_MOTION": 14.60159185, "ECCENTRICITY": 0.00196274, "INCLINATION": 86.3356, "RA_OF_ASC_NODE": 345.5484, "ARG_OF_PERICENTER": 10.7692, "MEAN_ANOMALY": 169.2127, "EPHEMERIS_TYPE": 0, "CLASSIFICATION_TYPE": "U", "NORAD_CAT_ID": 46965, "ELEMENT_SET_NO": 999, "REV_AT_EPOCH": 62108, "BSTAR": 0.00078040871, "MEAN_MOTION_DOT": 3.788e-05, "MEAN_MOTION_DDOT": 0}, "tle": {"line1": "1 46965U 97051ABX 25335.80413874  .00003788  00000+0  78041-3 0  9993", "line2": "2 46965  86.3356 345.5484 0019627  10.7692 169.2127 14.60159185621081"}}, "geometry": {"type": "Point", "coordinates": [-15.401247680667824, -8.834955470243072]}}, {"type": "Feature", "properties": {"norad_id": 46971, "name": "IRIDIUM 33 DEB", "group": "iridium-33-debris", "lat": 19.614370343286225, "lon": 156.5441737739308, "alt_km": 580.5312586814562, "timestamp": "2025-12-02T15:49:07.579415+00:00", "meta": {"OBJECT_NAME": "IRIDIUM 33 DEB", "OBJECT_ID": "1997-051ACD", "EPOCH": "2025-11-30T18:57:44.502624", "MEAN_MOTION": 14.96904917, "ECCENTRICITY": 0.00065248, "INCLINATION": 86.3392, "RA_OF_ASC_NODE": 338.7285, "ARG_OF_PERICENTER": 8.9727, "MEAN_ANOMALY": 165.6369, "EPHEMERIS_TYPE": 0, "CLASSIFICATION_TYPE": "U", "NORAD_CAT_ID": 46971, "ELEMENT_SET_NO": 999, "REV_AT_EPOCH": 64051, "BSTAR": 0.0032009998, "MEAN_MOTION_DOT": 0.00036919, "MEAN_MOTION_DDOT": 0}, "tle": {"line1": "1 46971U 97051ACD 25334.79009841  .00036919  00000+0  32010-2 0  9999", "line2": "2 46971  86.3392 338.7285 0006524   8.9727 165.6369 14.96904917640518"}}, "geometry": {"type": "Point", "coordinates": [156.5441737739308, 19.614370343286225]}}, {"type": "Feature", "properties": {"norad_id": 46974, "name": "IRIDIUM 33 DEB", "group": "iridium-33-debris", "lat": -67.98003854328505, "lon": 100.46118825933257, "alt_km": 731.6122596629866, "timestamp": "2025-12-02T15:49:07.579428+00:00", "meta": {"OBJECT_NAME": "IRIDIUM 33 DEB", "OBJECT_ID": "1997-051ACG", "EPOCH": "2025-11-30T02:35:30.463008", "MEAN_MOTION": 14.43749529, "ECCENTRICITY": 0.00958857, "INCLINATION": 86.2984, "RA_OF_ASC_NODE": 110.7848, "ARG_OF_PERICENTER": 228.1133, "MEAN_ANOMALY": 131.1861, "EPHEMERIS_TYPE": 0, "CLASSIFICATION_TYPE": "U", "NORAD_CAT_ID": 46974, "ELEMENT_SET_NO": 999, "REV_AT_EPOCH": 57326, "BSTAR": 0.0048958995, "MEAN_MOTION_DOT": 0.00017648, "MEAN_MOTION_DDOT": 0}, "tle": {"line1": "1 46974U 97051ACG 25334.10799147  .00017648  00000+0  48959-2 0  9999", "line2": "2 46974  86.2984 110.7848 0095885 228.1133 131.1861 14.43749529573265"}}, "geometry": {"type": "Point", "coordinates": [100.46118825933257, -67.98003854328505]}}]}